[
    {
        "Altitude(m)": 607910.9886104296,
        "Argument of Periapsis(deg)": 0.0,
        "Eccentricity": 0.0,
        "Inclination(deg)": 60.0,
        "Latitude(deg)": -14.292829052594465,
        "Longitude(deg)": 83.44265812875052,
        "Mean Anomaly(deg)": -163.6364,
        "RAAN(deg)": 355.0,
        "Satellite Name": "Test1 1574",
        "Satellite Number": 1574,
        "Semi-Major Axis(m)": 6980739.136638005,
        "Time(s)": 0
    },
    {
        "Altitude(m)": 608060.2214708566,
        "Argument of Periapsis(deg)": 0.00010418945913296404,
        "Eccentricity": 0.0,
        "Inclination(deg)": 60.0,
        "Latitude(deg)": -14.826490250196956,
        "Longitude(deg)": 83.73126783090306,
        "Mean Anomaly(deg)": -163.01629385453816,
        "RAAN(deg)": 354.99957995086027,
        "Satellite Name": "Test1 1574",
        "Satellite Number": 1574,
        "Semi-Major Axis(m)": 6980739.136638005,
        "Time(s)": 10
    }
]